{
  "links" : {
    "next" : "https://api.nasa.gov/neo/rest/v1/neo/browse?page=5&size=20&api_key=jqAGvNAwUIBu4fl9FSOjdm3V4F7hIglRzI6pdX9d",
    "prev" : "https://api.nasa.gov/neo/rest/v1/neo/browse?page=3&size=20&api_key=jqAGvNAwUIBu4fl9FSOjdm3V4F7hIglRzI6pdX9d",
    "self" : "https://api.nasa.gov/neo/rest/v1/neo/browse?page=4&size=20&api_key=jqAGvNAwUIBu4fl9FSOjdm3V4F7hIglRzI6pdX9d"
  },
  "page" : {
    "size" : 20,
    "total_elements" : 20750,
    "total_pages" : 1038,
    "number" : 4
  },
  "near_earth_objects" : [ {
    "links" : {
      "self" : "https://api.nasa.gov/neo/rest/v1/neo/3092235?api_key=jqAGvNAwUIBu4fl9FSOjdm3V4F7hIglRzI6pdX9d"
    },
    "neo_reference_id" : "3092235",
    "name" : "(1999 TU16)",
    "designation" : "1999 TU16",
    "nasa_jpl_url" : "http://ssd.jpl.nasa.gov/sbdb.cgi?sstr=3092235",
    "absolute_magnitude_h" : 22.1,
    "estimated_diameter" : {
      "kilometers" : {
        "estimated_diameter_min" : 0.1010543415,
        "estimated_diameter_max" : 0.2259643771
      },
      "meters" : {
        "estimated_diameter_min" : 101.054341542,
        "estimated_diameter_max" : 225.9643771094
      },
      "miles" : {
        "estimated_diameter_min" : 0.0627922373,
        "estimated_diameter_max" : 0.140407711
      },
      "feet" : {
        "estimated_diameter_min" : 331.5431259047,
        "estimated_diameter_max" : 741.3529669956
      }
    },
    "is_potentially_hazardous_asteroid" : false,
    "close_approach_data" : [ {
      "close_approach_date" : "1999-10-13",
      "epoch_date_close_approach" : 939798000000,
      "relative_velocity" : {
        "kilometers_per_second" : "10.4619028172",
        "kilometers_per_hour" : "37662.8501418278",
        "miles_per_hour" : "23402.2304117374"
      },
      "miss_distance" : {
        "astronomical" : "0.2817592874",
        "lunar" : "109.6043624878",
        "kilometers" : "42150592",
        "miles" : "26191162"
      },
      "orbiting_body" : "Earth"
    } ],
    "orbital_data" : {
      "orbit_id" : "11",
      "orbit_determination_date" : "2017-04-06 09:17:17",
      "first_observation_date" : "1999-10-11",
      "last_observation_date" : "1999-10-30",
      "data_arc_in_days" : 19,
      "observations_used" : 27,
      "orbit_uncertainty" : "8",
      "minimum_orbit_intersection" : ".275701",
      "jupiter_tisserand_invariant" : "3.173",
      "epoch_osculation" : "2451468.5",
      "eccentricity" : ".504742125935646",
      "semi_major_axis" : "2.569667147568882",
      "inclination" : "18.81204278714736",
      "ascending_node_longitude" : "202.6695158465513",
      "orbital_period" : "1504.574632427104",
      "perihelion_distance" : "1.272647888557977",
      "perihelion_argument" : "175.3107699061678",
      "aphelion_distance" : "3.866686406579787",
      "perihelion_time" : "2451459.585647966750",
      "mean_anomaly" : "2.132939545041467",
      "mean_motion" : ".2392702842658367",
      "equinox" : "J2000",
      "orbit_class" : {
        "orbit_class_type" : "AMO",
        "orbit_class_range" : "1.017 AU < q (perihelion) < 1.3 AU",
        "orbit_class_description" : "Near-Earth asteroid orbits similar to that of 1221 Amor"
      }
    },
    "is_sentry_object" : false
  }, {
    "links" : {
      "self" : "https://api.nasa.gov/neo/rest/v1/neo/3092238?api_key=jqAGvNAwUIBu4fl9FSOjdm3V4F7hIglRzI6pdX9d"
    },
    "neo_reference_id" : "3092238",
    "name" : "(1999 UZ5)",
    "designation" : "1999 UZ5",
    "nasa_jpl_url" : "http://ssd.jpl.nasa.gov/sbdb.cgi?sstr=3092238",
    "absolute_magnitude_h" : 21.866,
    "estimated_diameter" : {
      "kilometers" : {
        "estimated_diameter_min" : 0.1125524561,
        "estimated_diameter_max" : 0.2516749429
      },
      "meters" : {
        "estimated_diameter_min" : 112.5524561178,
        "estimated_diameter_max" : 251.6749429139
      },
      "miles" : {
        "estimated_diameter_min" : 0.0699368322,
        "estimated_diameter_max" : 0.156383511
      },
      "feet" : {
        "estimated_diameter_min" : 369.2666001294,
        "estimated_diameter_max" : 825.7052197097
      }
    },
    "is_potentially_hazardous_asteroid" : false,
    "close_approach_data" : [ {
      "close_approach_date" : "1999-10-22",
      "epoch_date_close_approach" : 940575600000,
      "relative_velocity" : {
        "kilometers_per_second" : "25.7366312892",
        "kilometers_per_hour" : "92651.8726410674",
        "miles_per_hour" : "57570.2705307788"
      },
      "miss_distance" : {
        "astronomical" : "0.069912964",
        "lunar" : "27.1961421967",
        "kilometers" : "10458830",
        "miles" : "6498816"
      },
      "orbiting_body" : "Earth"
    } ],
    "orbital_data" : {
      "orbit_id" : "12",
      "orbit_determination_date" : "2017-04-06 09:17:16",
      "first_observation_date" : "1999-10-31",
      "last_observation_date" : "1999-11-04",
      "data_arc_in_days" : 4,
      "observations_used" : 31,
      "orbit_uncertainty" : "9",
      "minimum_orbit_intersection" : ".0672335",
      "jupiter_tisserand_invariant" : "2.853",
      "epoch_osculation" : "2451484.5",
      "eccentricity" : ".7944884448959035",
      "semi_major_axis" : "2.588160641605116",
      "inclination" : "10.35572119704161",
      "ascending_node_longitude" : "228.689335630336",
      "orbital_period" : "1520.846104528295",
      "perihelion_distance" : ".5318969183154835",
      "perihelion_argument" : "64.65036271396603",
      "aphelion_distance" : "4.644424364894748",
      "perihelion_time" : "2451428.928454723843",
      "mean_anomaly" : "13.15435943179899",
      "mean_motion" : ".2367103409924948",
      "equinox" : "J2000",
      "orbit_class" : {
        "orbit_class_type" : "APO",
        "orbit_class_range" : "a (semi-major axis) > 1.0 AU; q (perihelion) < 1.017 AU",
        "orbit_class_description" : "Near-Earth asteroid orbits which cross the Earth’s orbit similar to that of 1862 Apollo"
      }
    },
    "is_sentry_object" : false
  }, {
    "links" : {
      "self" : "https://api.nasa.gov/neo/rest/v1/neo/3026124?api_key=jqAGvNAwUIBu4fl9FSOjdm3V4F7hIglRzI6pdX9d"
    },
    "neo_reference_id" : "3026124",
    "name" : "(1999 VQ6)",
    "nasa_jpl_url" : "http://ssd.jpl.nasa.gov/sbdb.cgi?sstr=3026124",
    "absolute_magnitude_h" : 18.5,
    "estimated_diameter" : {
      "kilometers" : {
        "estimated_diameter_min" : 0.5303407233,
        "estimated_diameter_max" : 1.1858779086
      },
      "meters" : {
        "estimated_diameter_min" : 530.3407233187,
        "estimated_diameter_max" : 1185.8779085771
      },
      "miles" : {
        "estimated_diameter_min" : 0.3295383456,
        "estimated_diameter_max" : 0.7368701419
      },
      "feet" : {
        "estimated_diameter_min" : 1739.963058693,
        "estimated_diameter_max" : 3890.675677576
      }
    },
    "is_potentially_hazardous_asteroid" : false,
    "close_approach_data" : [ {
      "close_approach_date" : "2116-11-16",
      "epoch_date_close_approach" : 4634956800000,
      "relative_velocity" : {
        "kilometers_per_second" : "13.9854431542",
        "kilometers_per_hour" : "50347.5953552327",
        "miles_per_hour" : "31284.0377917"
      },
      "miss_distance" : {
        "astronomical" : "0.492006097",
        "lunar" : "191.3903656006",
        "kilometers" : "73603064",
        "miles" : "45734824"
      },
      "orbiting_body" : "Earth"
    }, {
      "close_approach_date" : "2187-11-15",
      "epoch_date_close_approach" : 6875395200000,
      "relative_velocity" : {
        "kilometers_per_second" : "13.5016260426",
        "kilometers_per_hour" : "48605.8537535033",
        "miles_per_hour" : "30201.787294781"
      },
      "miss_distance" : {
        "astronomical" : "0.4960429635",
        "lunar" : "192.9607086182",
        "kilometers" : "74206976",
        "miles" : "46110076"
      },
      "orbiting_body" : "Earth"
    } ],
    "orbital_data" : {
      "orbit_id" : "17",
      "orbit_determination_date" : "2017-04-21 06:19:35",
      "first_observation_date" : null,
      "last_observation_date" : null,
      "data_arc_in_days" : null,
      "observations_used" : null,
      "orbit_uncertainty" : "1",
      "minimum_orbit_intersection" : ".503574",
      "jupiter_tisserand_invariant" : "3.082",
      "epoch_osculation" : "2457800.5",
      "eccentricity" : ".5084435294583641",
      "semi_major_axis" : "2.596966893009854",
      "inclination" : "27.61829519626948",
      "ascending_node_longitude" : "203.5672943559378",
      "orbital_period" : "1528.614752406529",
      "perihelion_distance" : "1.276555880041402",
      "perihelion_argument" : "254.3515688348592",
      "aphelion_distance" : "3.917377905978305",
      "perihelion_time" : "2457673.375172350244",
      "mean_anomaly" : "29.93883048810281",
      "mean_motion" : ".2355073437785713",
      "equinox" : "J2000",
      "orbit_class" : null
    },
    "is_sentry_object" : false
  } ]
}